*******************************************************************************
Ephemeris / WWW_USER Tue Mar 27 22:08:40 2018 Pasadena, USA      / Horizons    
*******************************************************************************
Target body name: 136472 Makemake (2005 FY9)      {source: JPL#87}
Center body name: Solar System Barycenter (0)     {source: DE431}
Center-site name: BODY CENTER
*******************************************************************************
Start time      : A.D. 2018-Feb-08 00:00:00.0000 TDB
Stop  time      : A.D. 2023-Feb-08 00:00:00.0000 TDB
Step-size       : 7200 minutes
*******************************************************************************
Center geodetic : 0.00000000,0.00000000,0.0000000 {E-lon(deg),Lat(deg),Alt(km)}
Center cylindric: 0.00000000,0.00000000,0.0000000 {E-lon(deg),Dxy(km),Dz(km)}
Center radii    : (undefined)                                                  
Small perturbers: Yes                             {source: SB431-N16}
Output units    : AU-D                                                         
Output type     : GEOMETRIC cartesian states
Output format   : 2 (position and velocity)
Reference frame : ICRF/J2000.0                                                 
Coordinate systm: Ecliptic and Mean Equinox of Reference Epoch                 
*******************************************************************************
Initial IAU76/J2000 heliocentric ecliptic osculating elements (au, days, deg.):
  EPOCH=  2455873.5 ! 2011-Nov-08.00 (TDB)         Residual RMS= .33903        
   EC= .163243645764803    QR= 37.98936402578253   TP= 2408166.97804815        
   OM= 79.32583089553567   W=  296.2985095636197   IN= 29.01057544965225       
  Equivalent ICRF heliocentric equatorial cartesian coordinates (au, au/d):
   X=-4.573730857749887E+01  Y=-8.025010222974128E+00  Z= 2.392852066344231E+01
  VX=-2.959644349211270E-04 VY=-1.968679195449939E-03 VZ=-9.209610172847871E-04
Asteroid physical parameters (km, seconds, rotational period in hours):        
   GM= n.a.                RAD= n.a.               ROTPER= 22.48               
   H= -.200                G= .150                 B-V= n.a.                   
                           ALBEDO= n.a.            STYP= n.a.                  
*******************************************************************************
JDTDB
   X     Y     Z
   VX    VY    VZ
*******************************************************************************
$$SOE
2458712.500000000 = A.D. 2019-Aug-17 00:00:00.0000 TDB 
  -4.618804327679117E+01 -4.028659098359193E+00  2.476187864785413E+01
  -2.327830292024888E-05 -2.172164192558781E-03 -2.079525699784849E-04
2458717.500000000 = A.D. 2019-Aug-22 00:00:00.0000 TDB 
  -4.618815849022690E+01 -4.039519816465147E+00  2.476083825341202E+01
  -2.280707316605686E-05 -2.172123031509414E-03 -2.082052040258068E-04
2458722.500000000 = A.D. 2019-Aug-27 00:00:00.0000 TDB 
  -4.618827134754082E+01 -4.050380328491171E+00  2.475979659584225E+01
  -2.233585420305826E-05 -2.172081760589466E-03 -2.084578210418838E-04
2458727.500000000 = A.D. 2019-Sep-01 00:00:00.0000 TDB 
  -4.618838184878692E+01 -4.061240633887932E+00  2.475875367522999E+01
  -2.186464604197338E-05 -2.172040379805878E-03 -2.087104210224638E-04
2458732.500000000 = A.D. 2019-Sep-06 00:00:00.0000 TDB 
  -4.618848999401927E+01 -4.072100732106130E+00  2.475770949166044E+01
  -2.139344869477073E-05 -2.171998889164765E-03 -2.089630039620411E-04
2458737.500000000 = A.D. 2019-Sep-11 00:00:00.0000 TDB 
  -4.618859578329192E+01 -4.082960622596494E+00  2.475666404521878E+01
  -2.092226217216585E-05 -2.171957288673109E-03 -2.092155698563612E-04
2458742.500000000 = A.D. 2019-Sep-16 00:00:00.0000 TDB 
  -4.618869921665905E+01 -4.093820304809787E+00  2.475561733599029E+01
  -2.045108648527945E-05 -2.171915578337639E-03 -2.094681187007615E-04
2458747.500000000 = A.D. 2019-Sep-21 00:00:00.0000 TDB 
  -4.618880029417485E+01 -4.104679778196809E+00  2.475456936406020E+01
  -1.997992164523688E-05 -2.171873758165097E-03 -2.097206504905687E-04
2458752.500000000 = A.D. 2019-Sep-26 00:00:00.0000 TDB 
  -4.618889901589359E+01 -4.115539042208390E+00  2.475352012951382E+01
  -1.950876766316813E-05 -2.171831828162244E-03 -2.099731652211042E-04
2458757.500000000 = A.D. 2019-Oct-01 00:00:00.0000 TDB 
  -4.618899538186959E+01 -4.126398096295388E+00  2.475246963243642E+01
  -1.903762455038115E-05 -2.171789788336197E-03 -2.102256628874824E-04
2458762.500000000 = A.D. 2019-Oct-06 00:00:00.0000 TDB 
  -4.618908939215724E+01 -4.137256939908716E+00  2.475141787291338E+01
  -1.856649231756590E-05 -2.171747638692864E-03 -2.104781434855168E-04
2458767.500000000 = A.D. 2019-Oct-11 00:00:00.0000 TDB 
  -4.618918104681092E+01 -4.148115572499300E+00  2.475036485103003E+01
  -1.809537097602037E-05 -2.171705379239356E-03 -2.107306070103291E-04
2458772.500000000 = A.D. 2019-Oct-16 00:00:00.0000 TDB 
  -4.618927034588516E+01 -4.158973993518102E+00  2.474931056687173E+01
  -1.762426053685240E-05 -2.171663009982418E-03 -2.109830534572516E-04
2458777.500000000 = A.D. 2019-Oct-21 00:00:00.0000 TDB 
  -4.618935728943448E+01 -4.169832202416129E+00  2.474825502052392E+01
  -1.715316101116966E-05 -2.171620530928800E-03 -2.112354828216161E-04
2458782.500000000 = A.D. 2019-Oct-26 00:00:00.0000 TDB 
  -4.618944187751348E+01 -4.180690198644410E+00  2.474719821207200E+01
  -1.668207241007964E-05 -2.171577942085262E-03 -2.114878950987505E-04
2458787.500000000 = A.D. 2019-Oct-31 00:00:00.0000 TDB 
  -4.618952411017681E+01 -4.191547981654013E+00  2.474614014160142E+01
  -1.621099474493680E-05 -2.171535243458348E-03 -2.117402902837362E-04
2458792.500000000 = A.D. 2019-Nov-05 00:00:00.0000 TDB 
  -4.618960398747917E+01 -4.202405550896038E+00  2.474508080919765E+01
  -1.573992802624824E-05 -2.171492435055359E-03 -2.119926683724888E-04
2458797.500000000 = A.D. 2019-Nov-10 00:00:00.0000 TDB 
  -4.618968150947533E+01 -4.213262905821619E+00  2.474402021494619E+01
  -1.526887226532245E-05 -2.171449516882896E-03 -2.122450293601300E-04
2458802.500000000 = A.D. 2019-Nov-15 00:00:00.0000 TDB 
  -4.618975667622011E+01 -4.224120045881929E+00  2.474295835893257E+01
  -1.479782747321320E-05 -2.171406488947790E-03 -2.124973732420287E-04
2458807.500000000 = A.D. 2019-Nov-20 00:00:00.0000 TDB 
  -4.618982948776836E+01 -4.234976970528171E+00  2.474189524124229E+01
  -1.432679366096762E-05 -2.171363351256884E-03 -2.127497000135593E-04
2458812.500000000 = A.D. 2019-Nov-25 00:00:00.0000 TDB 
  -4.618989994417502E+01 -4.245833679211581E+00  2.474083086196095E+01
  -1.385577083962623E-05 -2.171320103817035E-03 -2.130020096700987E-04
2458817.500000000 = A.D. 2019-Nov-30 00:00:00.0000 TDB 
  -4.618996804549510E+01 -4.256690171383440E+00  2.473976522117413E+01
  -1.338475901999053E-05 -2.171276746634885E-03 -2.132543022072829E-04
2458822.500000000 = A.D. 2019-Dec-05 00:00:00.0000 TDB 
  -4.619003379178359E+01 -4.267546446495045E+00  2.473869831896742E+01
  -1.291375821362226E-05 -2.171233279717835E-03 -2.135065776199094E-04
2458827.500000000 = A.D. 2019-Dec-10 00:00:00.0000 TDB 
  -4.619009718309561E+01 -4.278402503997738E+00  2.473763015542648E+01
  -1.244276843136712E-05 -2.171189703072606E-03 -2.137588359035588E-04
2458832.500000000 = A.D. 2019-Dec-15 00:00:00.0000 TDB 
  -4.619015821948630E+01 -4.289258343342900E+00  2.473656073063695E+01
  -1.197178968428606E-05 -2.171146016706153E-03 -2.140110770535712E-04
2458837.500000000 = A.D. 2019-Dec-20 00:00:00.0000 TDB 
  -4.619021690101086E+01 -4.300113963981945E+00  2.473549004468451E+01
  -1.150082198343928E-05 -2.171102220625441E-03 -2.142633010652846E-04
2458842.500000000 = A.D. 2019-Dec-25 00:00:00.0000 TDB 
  -4.619027322772457E+01 -4.310969365366307E+00  2.473441809765487E+01
  -1.102986533988623E-05 -2.171058314837461E-03 -2.145155079340335E-04
2458847.500000000 = A.D. 2019-Dec-30 00:00:00.0000 TDB 
  -4.619032719968272E+01 -4.321824546947481E+00  2.473334488963375E+01
  -1.055891976448964E-05 -2.171014299349384E-03 -2.147676976553508E-04
2458852.500000000 = A.D. 2020-Jan-04 00:00:00.0000 TDB 
  -4.619037881694068E+01 -4.332679508176978E+00  2.473227042070690E+01
  -1.008798526873728E-05 -2.170970174167866E-03 -2.150198702241253E-04
2458857.500000000 = A.D. 2020-Jan-09 00:00:00.0000 TDB 
  -4.619042807955388E+01 -4.343534248506349E+00  2.473119469096011E+01
  -9.617061863549815E-06 -2.170925939300066E-03 -2.152720256358238E-04
2458862.500000000 = A.D. 2020-Jan-14 00:00:00.0000 TDB 
  -4.619047498757782E+01 -4.354388767387180E+00  2.473011770047915E+01
  -9.146149560021670E-06 -2.170881594753011E-03 -2.155241638857307E-04
2458867.500000000 = A.D. 2020-Jan-19 00:00:00.0000 TDB 
  -4.619051954106800E+01 -4.365243064271090E+00  2.472903944934986E+01
  -8.675248369251383E-06 -2.170837140533741E-03 -2.157762849691233E-04
2458872.500000000 = A.D. 2020-Jan-24 00:00:00.0000 TDB 
  -4.619056174008004E+01 -4.376097138609739E+00  2.472795993765807E+01
  -8.204358302341650E-06 -2.170792576649313E-03 -2.160283888812707E-04
2458877.500000000 = A.D. 2020-Jan-29 00:00:00.0000 TDB 
  -4.619060158466959E+01 -4.386950989854821E+00  2.472687916548967E+01
  -7.733479370399316E-06 -2.170747903106794E-03 -2.162804756174347E-04
2458882.500000000 = A.D. 2020-Feb-03 00:00:00.0000 TDB 
  -4.619063907489234E+01 -4.397804617458056E+00  2.472579713293053E+01
  -7.262611584611223E-06 -2.170703119913326E-03 -2.165325451728017E-04
2458887.500000000 = A.D. 2020-Feb-08 00:00:00.0000 TDB 
  -4.619067421080403E+01 -4.408658020871214E+00  2.472471384006659E+01
  -6.791754955893781E-06 -2.170658227075853E-03 -2.167845975427932E-04
2458892.500000000 = A.D. 2020-Feb-13 00:00:00.0000 TDB 
  -4.619070699246051E+01 -4.419511199546085E+00  2.472362928698376E+01
  -6.320909495434635E-06 -2.170613224601540E-03 -2.170366327225866E-04
